{
  "type": "FeatureCollection",
  "features": [
    {
      "type": "Feature",
      "properties": {
        "norad_id": 37238,
        "name": "INTELSAT 17 (IS-17)",
        "group": "intelsat",
        "lat": 0.0035708485848195116,
        "lon": -149.37965909857346,
        "alt_km": 35783.90891068561,
        "timestamp": "2025-12-20T03:42:47.059818+00:00",
        "meta_object_name": "INTELSAT 17 (IS-17)",
        "meta_object_id": "2010-065B",
        "meta_epoch": "2025-12-19T20:34:55.871040",
        "meta_mean_motion": 1.00271342,
        "meta_eccentricity": 0.000279,
        "meta_inclination": 0.0274,
        "meta_ra_of_asc_node": 66.7969,
        "meta_arg_of_pericenter": 222.8909,
        "meta_mean_anomaly": 173.7183,
        "meta_ephemeris_type": 0,
        "meta_classification_type": "U",
        "meta_norad_cat_id": 37238,
        "meta_element_set_no": 999,
        "meta_rev_at_epoch": 5145,
        "meta_bstar": 0,
        "meta_mean_motion_dot": 0,
        "meta_mean_motion_ddot": 0,
        "tle_line1": "1 37238U 10065B   25353.85759110  .00000000  00000+0  00000+0 0  9997",
        "tle_line2": "2 37238   0.0274  66.7969 0002790 222.8909 173.7183  1.00271342 51456"
      },
      "geometry": {
        "type": "Point",
        "coordinates": [
          -149.37965909857346,
          0.0035708485848195116
        ]
      }
    },
    {
      "type": "Feature",
      "properties": {
        "norad_id": 37392,
        "name": "INTELSAT 28 (IS-28)",
        "group": "intelsat",
        "lat": 0.6550507623533824,
        "lon": 112.96584253135434,
        "alt_km": 35801.0786758667,
        "timestamp": "2025-12-20T03:42:47.059831+00:00",
        "meta_object_name": "INTELSAT 28 (IS-28)",
        "meta_object_id": "2011-016A",
        "meta_epoch": "2025-12-19T18:14:53.275776",
        "meta_mean_motion": 1.00270135,
        "meta_eccentricity": 0.0003675,
        "meta_inclination": 1.3417,
        "meta_ra_of_asc_node": 84.9812,
        "meta_arg_of_pericenter": 187.4914,
        "meta_mean_anomaly": 58.1626,
        "meta_ephemeris_type": 0,
        "meta_classification_type": "U",
        "meta_norad_cat_id": 37392,
        "meta_element_set_no": 999,
        "meta_rev_at_epoch": 5148,
        "meta_bstar": 0,
        "meta_mean_motion_dot": -2.02e-06,
        "meta_mean_motion_ddot": 0,
        "tle_line1": "1 37392U 11016A   25353.76033884 -.00000202  00000+0  00000+0 0  9993",
        "tle_line2": "2 37392   1.3417  84.9812 0003675 187.4914  58.1626  1.00270135 51484"
      },
      "geometry": {
        "type": "Point",
        "coordinates": [
          112.96584253135434,
          0.6550507623533824
        ]
      }
    },
    {
      "type": "Feature",
      "properties": {
        "norad_id": 37834,
        "name": "INTELSAT 18 (IS-18)",
        "group": "intelsat",
        "lat": 0.011607958133654665,
        "lon": -35.310213249671236,
        "alt_km": 35780.49645659716,
        "timestamp": "2025-12-20T03:42:47.059844+00:00",
        "meta_object_name": "INTELSAT 18 (IS-18)",
        "meta_object_id": "2011-056A",
        "meta_epoch": "2025-12-19T19:15:17.492256",
        "meta_mean_motion": 1.0027221,
        "meta_eccentricity": 0.0001656,
        "meta_inclination": 0.0348,
        "meta_ra_of_asc_node": 279.4074,
        "meta_arg_of_pericenter": 6.336,
        "meta_mean_anomaly": 271.7233,
        "meta_ephemeris_type": 0,
        "meta_classification_type": "U",
        "meta_norad_cat_id": 37834,
        "meta_element_set_no": 999,
        "meta_rev_at_epoch": 5201,
        "meta_bstar": 0,
        "meta_mean_motion_dot": 7.7e-07,
        "meta_mean_motion_ddot": 0,
        "tle_line1": "1 37834U 11056A   25353.80228579  .00000077  00000+0  00000+0 0  9999",
        "tle_line2": "2 37834   0.0348 279.4074 0001656   6.3360 271.7233  1.00272210 52019"
      },
      "geometry": {
        "type": "Point",
        "coordinates": [
          -35.310213249671236,
          0.011607958133654665
        ]
      }
    },
    {
      "type": "Feature",
      "properties": {
        "norad_id": 38098,
        "name": "INTELSAT 22 (IS-22)",
        "group": "intelsat",
        "lat": -0.007884971232415659,
        "lon": -143.24435296167798,
        "alt_km": 35782.69581396713,
        "timestamp": "2025-12-20T03:42:47.059856+00:00",
        "meta_object_name": "INTELSAT 22 (IS-22)",
        "meta_object_id": "2012-011A",
        "meta_epoch": "2025-12-19T19:48:56.096064",
        "meta_mean_motion": 1.00270554,
        "meta_eccentricity": 0.0001809,
        "meta_inclination": 0.0143,
        "meta_ra_of_asc_node": 46.6827,
        "meta_arg_of_pericenter": 231.0722,
        "meta_mean_anomaly": 180.2437,
        "meta_ephemeris_type": 0,
        "meta_classification_type": "U",
        "meta_norad_cat_id": 38098,
        "meta_element_set_no": 999,
        "meta_rev_at_epoch": 539,
        "meta_bstar": 0,
        "meta_mean_motion_dot": -3.4e-07,
        "meta_mean_motion_ddot": 0,
        "tle_line1": "1 38098U 12011A   25353.82564926 -.00000034  00000+0  00000+0 0  9999",
        "tle_line2": "2 38098   0.0143  46.6827 0001809 231.0722 180.2437  1.00270554  5392"
      },
      "geometry": {
        "type": "Point",
        "coordinates": [
          -143.24435296167798,
          -0.007884971232415659
        ]
      }
    },
    {
      "type": "Feature",
      "properties": {
        "norad_id": 38356,
        "name": "INTELSAT 19 (IS-19)",
        "group": "intelsat",
        "lat": -0.026396354233190037,
        "lon": -49.2985850216099,
        "alt_km": 35778.09842884106,
        "timestamp": "2025-12-20T03:42:47.059868+00:00",
        "meta_object_name": "INTELSAT 19 (IS-19)",
        "meta_object_id": "2012-030A",
        "meta_epoch": "2025-12-19T17:28:37.236864",
        "meta_mean_motion": 1.00271271,
        "meta_eccentricity": 0.0002741,
        "meta_inclination": 0.0115,
        "meta_ra_of_asc_node": 352.2924,
        "meta_arg_of_pericenter": 272.7431,
        "meta_mean_anomaly": 251.6929,
        "meta_ephemeris_type": 0,
        "meta_classification_type": "U",
        "meta_norad_cat_id": 38356,
        "meta_element_set_no": 999,
        "meta_rev_at_epoch": 4865,
        "meta_bstar": 0,
        "meta_mean_motion_dot": -3.2e-07,
        "meta_mean_motion_ddot": 0,
        "tle_line1": "1 38356U 12030A   25353.72820876 -.00000032  00000+0  00000+0 0  9993",
        "tle_line2": "2 38356   0.0115 352.2924 0002741 272.7431 251.6929  1.00271271 48659"
      },
      "geometry": {
        "type": "Point",
        "coordinates": [
          -49.2985850216099,
          -0.026396354233190037
        ]
      }
    },
    {
      "type": "Feature",
      "properties": {
        "norad_id": 38740,
        "name": "INTELSAT 20 (IS-20)",
        "group": "intelsat",
        "lat": 0.0005997299501050667,
        "lon": -146.80514138590962,
        "alt_km": 35776.49568305197,
        "timestamp": "2025-12-20T03:42:47.059879+00:00",
        "meta_object_name": "INTELSAT 20 (IS-20)",
        "meta_object_id": "2012-043A",
        "meta_epoch": "2025-12-19T19:47:01.907232",
        "meta_mean_motion": 1.00269886,
        "meta_eccentricity": 0.0002784,
        "meta_inclination": 0.0223,
        "meta_ra_of_asc_node": 80.7002,
        "meta_arg_of_pericenter": 102.3785,
        "meta_mean_anomaly": 270.8487,
        "meta_ephemeris_type": 0,
        "meta_classification_type": "U",
        "meta_norad_cat_id": 38740,
        "meta_element_set_no": 999,
        "meta_rev_at_epoch": 4895,
        "meta_bstar": 0,
        "meta_mean_motion_dot": 0,
        "meta_mean_motion_ddot": 0,
        "tle_line1": "1 38740U 12043A   25353.82432763  .00000000  00000+0  00000+0 0  9993",
        "tle_line2": "2 38740   0.0223  80.7002 0002784 102.3785 270.8487  1.00269886 48957"
      },
      "geometry": {
        "type": "Point",
        "coordinates": [
          -146.80514138590962,
          0.0005997299501050667
        ]
      }
    },
    {
      "type": "Feature",
      "properties": {
        "norad_id": 38749,
        "name": "INTELSAT 21 (IS-21)",
        "group": "intelsat",
        "lat": 0.02742837328878397,
        "lon": 86.67890026699187,
        "alt_km": 35792.11434236364,
        "timestamp": "2025-12-20T03:42:47.059891+00:00",
        "meta_object_name": "INTELSAT 21 (IS-21)",
        "meta_object_id": "2012-045A",
        "meta_epoch": "2025-12-19T11:16:36.486336",
        "meta_mean_motion": 1.00273688,
        "meta_eccentricity": 0.0001541,
        "meta_inclination": 0.0278,
        "meta_ra_of_asc_node": 286.5242,
        "meta_arg_of_pericenter": 333.6711,
        "meta_mean_anomaly": 299.2721,
        "meta_ephemeris_type": 0,
        "meta_classification_type": "U",
        "meta_norad_cat_id": 38749,
        "meta_element_set_no": 999,
        "meta_rev_at_epoch": 4872,
        "meta_bstar": 0,
        "meta_mean_motion_dot": -2.6e-06,
        "meta_mean_motion_ddot": 0,
        "tle_line1": "1 38749U 12045A   25353.46986674 -.00000260  00000+0  00000+0 0  9998",
        "tle_line2": "2 38749   0.0278 286.5242 0001541 333.6711 299.2721  1.00273688 48722"
      },
      "geometry": {
        "type": "Point",
        "coordinates": [
          86.67890026699187,
          0.02742837328878397
        ]
      }
    }
  ]
}